LANDSAT 9               
1 49260U 21088A   24058.47602727  .00000669  00000+0  15843-3 0  9998
2 49260  98.1990 129.9170 0001384 100.2038 259.9316 14.57100285128568
